SL-14 R/B               
1 21423U 91042B   26036.00740456  .00000468  00000+0  56199-4 0  9992
2 21423  82.4901 250.8370 0016860 353.7367   6.3634 14.81798168848238
ERS-1                   
1 21574U 91050A   26036.02690902  .00000444  00000+0  15670-3 0  9992
2 21574  98.7896  53.4402 0031005 300.1793  59.6323 14.39421923811037
ARIANE 40 R/B           
1 21610U 91050F   26036.08616487  .00000396  00000+0  13104-3 0  9991
2 21610  98.2080  89.5353 0003605 154.2480 205.8891 14.42868764814297
INTERCOSMOS 25          
1 21819U 91086A   26036.21050880  .00000954  00000+0  18452-3 0  9996
2 21819  82.6088 329.6349 1486612 186.9062 170.9281 12.11910767492751
SL-8 R/B                
1 21876U 92008B   26036.16541943  .00000081  00000+0  67409-4 0  9991
2 21876  82.9271 291.9732 0033642 224.1684 300.1100 13.75969423704941
SL-8 R/B                
1 21938U 92020B   26036.12761590  .00000125  00000+0  11317-3 0  9997
2 21938  82.9323 177.9307 0029524  31.0638 142.0243 13.75544336696658
USA 81                  
1 21949U 92023A   26035.82553383  .00000267  00000+0  91415-4 0  9992
2 21949  85.0120 150.3901 0002522 107.0297 253.1173 14.32355172 90081
COSMOS 2219             
1 22219U 92076A   26035.55684955 -.00000186  00000+0 -72692-4 0  9999
2 22219  71.0589  87.3358 0020510 252.8642 107.0235 14.14077297713695
SL-16 R/B               
1 22220U 92076B   26036.02629806  .00000268  00000+0  15727-3 0  9992
2 22220  70.9982 257.1797 0011761 154.0697 356.0770 14.16854195717200
COSMOS 2221             
1 22236U 92080A   26036.13334266  .00002703  00000+0  23806-3 0  9992
2 22236  82.5063 310.2592 0013138 307.0507  52.9513 14.96066712775928
SL-16 R/B               
1 22285U 92093B   26036.08984463 -.00000201  00000+0 -78621-4 0  9993
2 22285  71.0203  72.7045 0005060 327.6934  32.3878 14.15441663708544
COSMOS 2228             
1 22286U 92094A   26036.23781065  .00002926  00000+0  25092-3 0  9992
2 22286  82.5159 268.3854 0019316  53.7987 306.5017 14.97040418771204
