CCSDS_OMM_VERS = 2.0
CREATION_DATE  = 
ORIGINATOR     = 

OBJECT_NAME    = SL-14 R/B
OBJECT_ID      = 1991-042B
CENTER_NAME    = EARTH
REF_FRAME      = TEME
TIME_SYSTEM    = UTC
MEAN_ELEMENT_THEORY = SGP/SGP4

EPOCH          = 2026-02-05T00:10:39.753984
MEAN_MOTION    = 14.81798168
ECCENTRICITY   = .00168607
INCLINATION    = 82.4901
RA_OF_ASC_NODE = 250.8370
ARG_OF_PERICENTER = 353.7367
MEAN_ANOMALY   = 6.3634

EPHEMERIS_TYPE = 0
CLASSIFICATION_TYPE = U
NORAD_CAT_ID   = 21423
ELEMENT_SET_NO = 999
REV_AT_EPOCH   = 84823
BSTAR          = .56198807E-4
MEAN_MOTION_DOT = .468E-5
MEAN_MOTION_DDOT = 0

CCSDS_OMM_VERS = 2.0
CREATION_DATE  = 
ORIGINATOR     = 

OBJECT_NAME    = ERS-1
OBJECT_ID      = 1991-050A
CENTER_NAME    = EARTH
REF_FRAME      = TEME
TIME_SYSTEM    = UTC
MEAN_ELEMENT_THEORY = SGP/SGP4

EPOCH          = 2026-02-05T00:38:44.939328
MEAN_MOTION    = 14.39421923
ECCENTRICITY   = .00310053
INCLINATION    = 98.7896
RA_OF_ASC_NODE = 53.4402
ARG_OF_PERICENTER = 300.1793
MEAN_ANOMALY   = 59.6323

EPHEMERIS_TYPE = 0
CLASSIFICATION_TYPE = U
NORAD_CAT_ID   = 21574
ELEMENT_SET_NO = 999
REV_AT_EPOCH   = 81103
BSTAR          = .15669878E-3
MEAN_MOTION_DOT = .444E-5
MEAN_MOTION_DDOT = 0

CCSDS_OMM_VERS = 2.0
CREATION_DATE  = 
ORIGINATOR     = 

OBJECT_NAME    = ARIANE 40 R/B
OBJECT_ID      = 1991-050F
CENTER_NAME    = EARTH
REF_FRAME      = TEME
TIME_SYSTEM    = UTC
MEAN_ELEMENT_THEORY = SGP/SGP4

EPOCH          = 2026-02-05T02:04:04.644768
MEAN_MOTION    = 14.42868764
ECCENTRICITY   = .00036058
INCLINATION    = 98.2080
RA_OF_ASC_NODE = 89.5353
ARG_OF_PERICENTER = 154.2480
MEAN_ANOMALY   = 205.8891

EPHEMERIS_TYPE = 0
CLASSIFICATION_TYPE = U
NORAD_CAT_ID   = 21610
ELEMENT_SET_NO = 999
REV_AT_EPOCH   = 81429
BSTAR          = .13104108E-3
MEAN_MOTION_DOT = .396E-5
MEAN_MOTION_DDOT = 0

CCSDS_OMM_VERS = 2.0
CREATION_DATE  = 
ORIGINATOR     = 

OBJECT_NAME    = INTERCOSMOS 25
OBJECT_ID      = 1991-086A
CENTER_NAME    = EARTH
REF_FRAME      = TEME
TIME_SYSTEM    = UTC
MEAN_ELEMENT_THEORY = SGP/SGP4

EPOCH          = 2026-02-05T05:03:07.960320
MEAN_MOTION    = 12.11910767
ECCENTRICITY   = .1486612
INCLINATION    = 82.6088
RA_OF_ASC_NODE = 329.6349
ARG_OF_PERICENTER = 186.9062
MEAN_ANOMALY   = 170.9281

EPHEMERIS_TYPE = 0
CLASSIFICATION_TYPE = U
NORAD_CAT_ID   = 21819
ELEMENT_SET_NO = 999
REV_AT_EPOCH   = 49275
BSTAR          = .18452111E-3
MEAN_MOTION_DOT = .954E-5
MEAN_MOTION_DDOT = 0

CCSDS_OMM_VERS = 2.0
CREATION_DATE  = 
ORIGINATOR     = 

OBJECT_NAME    = SL-8 R/B
OBJECT_ID      = 1992-008B
CENTER_NAME    = EARTH
REF_FRAME      = TEME
TIME_SYSTEM    = UTC
MEAN_ELEMENT_THEORY = SGP/SGP4

EPOCH          = 2026-02-05T03:58:12.238752
MEAN_MOTION    = 13.75969423
ECCENTRICITY   = .00336426
INCLINATION    = 82.9271
RA_OF_ASC_NODE = 291.9732
ARG_OF_PERICENTER = 224.1684
MEAN_ANOMALY   = 300.1100

EPHEMERIS_TYPE = 0
CLASSIFICATION_TYPE = U
NORAD_CAT_ID   = 21876
ELEMENT_SET_NO = 999
REV_AT_EPOCH   = 70494
BSTAR          = .67409327E-4
MEAN_MOTION_DOT = .81E-6
MEAN_MOTION_DDOT = 0

CCSDS_OMM_VERS = 2.0
CREATION_DATE  = 
ORIGINATOR     = 

OBJECT_NAME    = SL-8 R/B
OBJECT_ID      = 1992-020B
CENTER_NAME    = EARTH
REF_FRAME      = TEME
TIME_SYSTEM    = UTC
MEAN_ELEMENT_THEORY = SGP/SGP4

EPOCH          = 2026-02-05T03:03:46.013760
MEAN_MOTION    = 13.75544336
ECCENTRICITY   = .00295244
INCLINATION    = 82.9323
RA_OF_ASC_NODE = 177.9307
ARG_OF_PERICENTER = 31.0638
MEAN_ANOMALY   = 142.0243

EPHEMERIS_TYPE = 0
CLASSIFICATION_TYPE = U
NORAD_CAT_ID   = 21938
ELEMENT_SET_NO = 999
REV_AT_EPOCH   = 69665
BSTAR          = .11316943E-3
MEAN_MOTION_DOT = .125E-5
MEAN_MOTION_DDOT = 0

CCSDS_OMM_VERS = 2.0
CREATION_DATE  = 
ORIGINATOR     = 

OBJECT_NAME    = USA 81
OBJECT_ID      = 1992-023A
CENTER_NAME    = EARTH
REF_FRAME      = TEME
TIME_SYSTEM    = UTC
MEAN_ELEMENT_THEORY = SGP/SGP4

EPOCH          = 2026-02-04T19:48:46.122912
MEAN_MOTION    = 14.32355172
ECCENTRICITY   = .00025225
INCLINATION    = 85.0120
RA_OF_ASC_NODE = 150.3901
ARG_OF_PERICENTER = 107.0297
MEAN_ANOMALY   = 253.1173

EPHEMERIS_TYPE = 0
CLASSIFICATION_TYPE = U
NORAD_CAT_ID   = 21949
ELEMENT_SET_NO = 999
REV_AT_EPOCH   = 9008
BSTAR          = .91414546E-4
MEAN_MOTION_DOT = .267E-5
MEAN_MOTION_DDOT = 0

CCSDS_OMM_VERS = 2.0
CREATION_DATE  = 
ORIGINATOR     = 

OBJECT_NAME    = COSMOS 2219
OBJECT_ID      = 1992-076A
CENTER_NAME    = EARTH
REF_FRAME      = TEME
TIME_SYSTEM    = UTC
MEAN_ELEMENT_THEORY = SGP/SGP4

EPOCH          = 2026-02-04T13:21:51.801120
MEAN_MOTION    = 14.14077297
ECCENTRICITY   = .002051
INCLINATION    = 71.0589
RA_OF_ASC_NODE = 87.3358
ARG_OF_PERICENTER = 252.8642
MEAN_ANOMALY   = 107.0235

EPHEMERIS_TYPE = 0
CLASSIFICATION_TYPE = U
NORAD_CAT_ID   = 22219
ELEMENT_SET_NO = 999
REV_AT_EPOCH   = 71369
BSTAR          = -.72692271E-4
MEAN_MOTION_DOT = -.186E-5
MEAN_MOTION_DDOT = 0

CCSDS_OMM_VERS = 2.0
CREATION_DATE  = 
ORIGINATOR     = 

OBJECT_NAME    = SL-16 R/B
OBJECT_ID      = 1992-076B
CENTER_NAME    = EARTH
REF_FRAME      = TEME
TIME_SYSTEM    = UTC
MEAN_ELEMENT_THEORY = SGP/SGP4

EPOCH          = 2026-02-05T00:37:52.152384
MEAN_MOTION    = 14.16854195
ECCENTRICITY   = .00117613
INCLINATION    = 70.9982
RA_OF_ASC_NODE = 257.1797
ARG_OF_PERICENTER = 154.0697
MEAN_ANOMALY   = 356.0770

EPHEMERIS_TYPE = 0
CLASSIFICATION_TYPE = U
NORAD_CAT_ID   = 22220
ELEMENT_SET_NO = 999
REV_AT_EPOCH   = 71720
BSTAR          = .15726796E-3
MEAN_MOTION_DOT = .268E-5
MEAN_MOTION_DDOT = 0

CCSDS_OMM_VERS = 2.0
CREATION_DATE  = 
ORIGINATOR     = 

OBJECT_NAME    = COSMOS 2221
OBJECT_ID      = 1992-080A
CENTER_NAME    = EARTH
REF_FRAME      = TEME
TIME_SYSTEM    = UTC
MEAN_ELEMENT_THEORY = SGP/SGP4

EPOCH          = 2026-02-05T03:12:00.805824
MEAN_MOTION    = 14.96066712
ECCENTRICITY   = .00131389
INCLINATION    = 82.5063
RA_OF_ASC_NODE = 310.2592
ARG_OF_PERICENTER = 307.0507
MEAN_ANOMALY   = 52.9513

EPHEMERIS_TYPE = 0
CLASSIFICATION_TYPE = U
NORAD_CAT_ID   = 22236
ELEMENT_SET_NO = 999
REV_AT_EPOCH   = 77592
BSTAR          = .23806103E-3
MEAN_MOTION_DOT = .2703E-4
MEAN_MOTION_DDOT = 0

CCSDS_OMM_VERS = 2.0
CREATION_DATE  = 
ORIGINATOR     = 

OBJECT_NAME    = SL-16 R/B
OBJECT_ID      = 1992-093B
CENTER_NAME    = EARTH
REF_FRAME      = TEME
TIME_SYSTEM    = UTC
MEAN_ELEMENT_THEORY = SGP/SGP4

EPOCH          = 2026-02-05T02:09:22.576032
MEAN_MOTION    = 14.15441663
ECCENTRICITY   = .00050605
INCLINATION    = 71.0203
RA_OF_ASC_NODE = 72.7045
ARG_OF_PERICENTER = 327.6934
MEAN_ANOMALY   = 32.3878

EPHEMERIS_TYPE = 0
CLASSIFICATION_TYPE = U
NORAD_CAT_ID   = 22285
ELEMENT_SET_NO = 999
REV_AT_EPOCH   = 70854
BSTAR          = -.78621349E-4
MEAN_MOTION_DOT = -.201E-5
MEAN_MOTION_DDOT = 0

CCSDS_OMM_VERS = 2.0
CREATION_DATE  = 
ORIGINATOR     = 

OBJECT_NAME    = COSMOS 2228
OBJECT_ID      = 1992-094A
CENTER_NAME    = EARTH
REF_FRAME      = TEME
TIME_SYSTEM    = UTC
MEAN_ELEMENT_THEORY = SGP/SGP4

EPOCH          = 2026-02-05T05:42:26.840160
MEAN_MOTION    = 14.97040418
ECCENTRICITY   = .00193161
INCLINATION    = 82.5159
RA_OF_ASC_NODE = 268.3854
ARG_OF_PERICENTER = 53.7987
MEAN_ANOMALY   = 306.5017

EPHEMERIS_TYPE = 0
CLASSIFICATION_TYPE = U
NORAD_CAT_ID   = 22286
ELEMENT_SET_NO = 999
REV_AT_EPOCH   = 77120
BSTAR          = .25091593E-3
MEAN_MOTION_DOT = .2926E-4
MEAN_MOTION_DDOT = 0

